CCSDS_OMM_VERS = 2.0
CREATION_DATE  = 
ORIGINATOR     = 

OBJECT_NAME    = STARLINK-36730
OBJECT_ID      = 2026-034AA
CENTER_NAME    = EARTH
REF_FRAME      = TEME
TIME_SYSTEM    = UTC
MEAN_ELEMENT_THEORY = SGP/SGP4

EPOCH          = 2026-03-21T11:20:18.948192
MEAN_MOTION    = 15.80840043
ECCENTRICITY   = .00024578
INCLINATION    = 53.1582
RA_OF_ASC_NODE = 152.0937
ARG_OF_PERICENTER = 27.7343
MEAN_ANOMALY   = 332.3811

EPHEMERIS_TYPE = 0
CLASSIFICATION_TYPE = U
NORAD_CAT_ID   = 67874
ELEMENT_SET_NO = 999
REV_AT_EPOCH   = 580
BSTAR          = .20276333E-2
MEAN_MOTION_DOT = .418881E-2
MEAN_MOTION_DDOT = 0

CCSDS_OMM_VERS = 2.0
CREATION_DATE  = 
ORIGINATOR     = 

OBJECT_NAME    = STARLINK-36727
OBJECT_ID      = 2026-034AB
CENTER_NAME    = EARTH
REF_FRAME      = TEME
TIME_SYSTEM    = UTC
MEAN_ELEMENT_THEORY = SGP/SGP4

EPOCH          = 2026-03-21T11:19:14.109312
MEAN_MOTION    = 15.80814741
ECCENTRICITY   = .00014823
INCLINATION    = 53.1579
RA_OF_ASC_NODE = 152.0886
ARG_OF_PERICENTER = 64.8273
MEAN_ANOMALY   = 295.2903

EPHEMERIS_TYPE = 0
CLASSIFICATION_TYPE = U
NORAD_CAT_ID   = 67875
ELEMENT_SET_NO = 999
REV_AT_EPOCH   = 580
BSTAR          = .23140264E-2
MEAN_MOTION_DOT = .481111E-2
MEAN_MOTION_DDOT = 0

CCSDS_OMM_VERS = 2.0
CREATION_DATE  = 
ORIGINATOR     = 

OBJECT_NAME    = STARLINK-36743
OBJECT_ID      = 2026-034AC
CENTER_NAME    = EARTH
REF_FRAME      = TEME
TIME_SYSTEM    = UTC
MEAN_ELEMENT_THEORY = SGP/SGP4

EPOCH          = 2026-03-21T11:18:09.328320
MEAN_MOTION    = 15.80838813
ECCENTRICITY   = .00012104
INCLINATION    = 53.1583
RA_OF_ASC_NODE = 152.0831
ARG_OF_PERICENTER = 76.4849
MEAN_ANOMALY   = 283.6308

EPHEMERIS_TYPE = 0
CLASSIFICATION_TYPE = U
NORAD_CAT_ID   = 67876
ELEMENT_SET_NO = 999
REV_AT_EPOCH   = 580
BSTAR          = .27481877E-2
MEAN_MOTION_DOT = .578793E-2
MEAN_MOTION_DDOT = 0

CCSDS_OMM_VERS = 2.0
CREATION_DATE  = 
ORIGINATOR     = 

OBJECT_NAME    = STARLINK-36784
OBJECT_ID      = 2026-034AD
CENTER_NAME    = EARTH
REF_FRAME      = TEME
TIME_SYSTEM    = UTC
MEAN_ELEMENT_THEORY = SGP/SGP4

EPOCH          = 2026-03-21T12:00:00.999648
MEAN_MOTION    = 15.67005070
ECCENTRICITY   = .00013205
INCLINATION    = 53.1589
RA_OF_ASC_NODE = 152.0992
ARG_OF_PERICENTER = 53.7572
MEAN_ANOMALY   = 33.8687

EPHEMERIS_TYPE = 0
CLASSIFICATION_TYPE = U
NORAD_CAT_ID   = 67877
ELEMENT_SET_NO = 999
REV_AT_EPOCH   = 575
BSTAR          = -.19940823E-1
MEAN_MOTION_DOT = -.1915615E-1
MEAN_MOTION_DDOT = 0

CCSDS_OMM_VERS = 2.0
CREATION_DATE  = 
ORIGINATOR     = 

OBJECT_NAME    = STARLINK-36689
OBJECT_ID      = 2026-034AE
CENTER_NAME    = EARTH
REF_FRAME      = TEME
TIME_SYSTEM    = UTC
MEAN_ELEMENT_THEORY = SGP/SGP4

EPOCH          = 2026-03-21T12:47:01.283136
MEAN_MOTION    = 15.80939808
ECCENTRICITY   = .00012148
INCLINATION    = 53.1577
RA_OF_ASC_NODE = 151.7568
ARG_OF_PERICENTER = 113.2559
MEAN_ANOMALY   = 246.8592

EPHEMERIS_TYPE = 0
CLASSIFICATION_TYPE = U
NORAD_CAT_ID   = 67878
ELEMENT_SET_NO = 999
REV_AT_EPOCH   = 581
BSTAR          = .12315326E-2
MEAN_MOTION_DOT = .250312E-2
MEAN_MOTION_DDOT = 0

CCSDS_OMM_VERS = 2.0
CREATION_DATE  = 
ORIGINATOR     = 

OBJECT_NAME    = STARLINK-36818
OBJECT_ID      = 2026-035A
CENTER_NAME    = EARTH
REF_FRAME      = TEME
TIME_SYSTEM    = UTC
MEAN_ELEMENT_THEORY = SGP/SGP4

EPOCH          = 2026-03-21T13:52:30.803520
MEAN_MOTION    = 15.75267762
ECCENTRICITY   = .00013684
INCLINATION    = 97.2873
RA_OF_ASC_NODE = 13.5439
ARG_OF_PERICENTER = 86.5085
MEAN_ANOMALY   = 273.6336

EPHEMERIS_TYPE = 0
CLASSIFICATION_TYPE = U
NORAD_CAT_ID   = 67879
ELEMENT_SET_NO = 999
REV_AT_EPOCH   = 571
BSTAR          = .58574237E-3
MEAN_MOTION_DOT = .88444E-3
MEAN_MOTION_DDOT = 0

CCSDS_OMM_VERS = 2.0
CREATION_DATE  = 
ORIGINATOR     = 

OBJECT_NAME    = STARLINK-36821
OBJECT_ID      = 2026-035B
CENTER_NAME    = EARTH
REF_FRAME      = TEME
TIME_SYSTEM    = UTC
MEAN_ELEMENT_THEORY = SGP/SGP4

EPOCH          = 2026-03-21T13:48:26.603424
MEAN_MOTION    = 15.75399231
ECCENTRICITY   = .00014594
INCLINATION    = 97.2865
RA_OF_ASC_NODE = 13.5469
ARG_OF_PERICENTER = 112.7079
MEAN_ANOMALY   = 247.4341

EPHEMERIS_TYPE = 0
CLASSIFICATION_TYPE = U
NORAD_CAT_ID   = 67880
ELEMENT_SET_NO = 999
REV_AT_EPOCH   = 571
BSTAR          = .30744546E-2
MEAN_MOTION_DOT = .490196E-2
MEAN_MOTION_DDOT = 0

CCSDS_OMM_VERS = 2.0
CREATION_DATE  = 
ORIGINATOR     = 

OBJECT_NAME    = STARLINK-36808
OBJECT_ID      = 2026-035C
CENTER_NAME    = EARTH
REF_FRAME      = TEME
TIME_SYSTEM    = UTC
MEAN_ELEMENT_THEORY = SGP/SGP4

EPOCH          = 2026-03-21T13:13:57.058176
MEAN_MOTION    = 15.80861108
ECCENTRICITY   = .00018767
INCLINATION    = 97.2890
RA_OF_ASC_NODE = 13.5772
ARG_OF_PERICENTER = 135.0824
MEAN_ANOMALY   = 225.0596

EPHEMERIS_TYPE = 0
CLASSIFICATION_TYPE = U
NORAD_CAT_ID   = 67881
ELEMENT_SET_NO = 999
REV_AT_EPOCH   = 571
BSTAR          = .14725473E-2
MEAN_MOTION_DOT = .292178E-2
MEAN_MOTION_DDOT = 0

CCSDS_OMM_VERS = 2.0
CREATION_DATE  = 
ORIGINATOR     = 

OBJECT_NAME    = STARLINK-36817
OBJECT_ID      = 2026-035D
CENTER_NAME    = EARTH
REF_FRAME      = TEME
TIME_SYSTEM    = UTC
MEAN_ELEMENT_THEORY = SGP/SGP4

EPOCH          = 2026-03-21T12:00:00.999648
MEAN_MOTION    = 15.75171921
ECCENTRICITY   = .00016956
INCLINATION    = 97.2861
RA_OF_ASC_NODE = 13.5149
ARG_OF_PERICENTER = 76.3396
MEAN_ANOMALY   = 324.9705

EPHEMERIS_TYPE = 0
CLASSIFICATION_TYPE = U
NORAD_CAT_ID   = 67882
ELEMENT_SET_NO = 999
REV_AT_EPOCH   = 565
BSTAR          = -.16714304E-4
MEAN_MOTION_DOT = -.262E-4
MEAN_MOTION_DDOT = 0

CCSDS_OMM_VERS = 2.0
CREATION_DATE  = 
ORIGINATOR     = 

OBJECT_NAME    = STARLINK-36856
OBJECT_ID      = 2026-035E
CENTER_NAME    = EARTH
REF_FRAME      = TEME
TIME_SYSTEM    = UTC
MEAN_ELEMENT_THEORY = SGP/SGP4

EPOCH          = 2026-03-21T12:00:00.999648
MEAN_MOTION    = 15.75257984
ECCENTRICITY   = .000144
INCLINATION    = 97.2863
RA_OF_ASC_NODE = 13.5092
ARG_OF_PERICENTER = 103.2966
MEAN_ANOMALY   = 282.1148

EPHEMERIS_TYPE = 0
CLASSIFICATION_TYPE = U
NORAD_CAT_ID   = 67883
ELEMENT_SET_NO = 999
REV_AT_EPOCH   = 565
BSTAR          = -.10830318E-2
MEAN_MOTION_DOT = -.159171E-2
MEAN_MOTION_DDOT = 0

CCSDS_OMM_VERS = 2.0
CREATION_DATE  = 
ORIGINATOR     = 

OBJECT_NAME    = STARLINK-36842
OBJECT_ID      = 2026-035F
CENTER_NAME    = EARTH
REF_FRAME      = TEME
TIME_SYSTEM    = UTC
MEAN_ELEMENT_THEORY = SGP/SGP4

EPOCH          = 2026-03-21T13:44:22.779168
MEAN_MOTION    = 15.75298369
ECCENTRICITY   = .00012092
INCLINATION    = 97.2868
RA_OF_ASC_NODE = 13.5491
ARG_OF_PERICENTER = 23.8091
MEAN_ANOMALY   = 336.3230

EPHEMERIS_TYPE = 0
CLASSIFICATION_TYPE = U
NORAD_CAT_ID   = 67884
ELEMENT_SET_NO = 999
REV_AT_EPOCH   = 571
BSTAR          = .37327215E-4
MEAN_MOTION_DOT = .5467E-4
MEAN_MOTION_DDOT = 0

CCSDS_OMM_VERS = 2.0
CREATION_DATE  = 
ORIGINATOR     = 

OBJECT_NAME    = STARLINK-36826
OBJECT_ID      = 2026-035G
CENTER_NAME    = EARTH
REF_FRAME      = TEME
TIME_SYSTEM    = UTC
MEAN_ELEMENT_THEORY = SGP/SGP4

EPOCH          = 2026-03-21T08:57:14.601024
MEAN_MOTION    = 15.75302539
ECCENTRICITY   = .00010968
INCLINATION    = 97.2866
RA_OF_ASC_NODE = 13.3596
ARG_OF_PERICENTER = 115.7382
MEAN_ANOMALY   = 244.3996

EPHEMERIS_TYPE = 0
CLASSIFICATION_TYPE = U
NORAD_CAT_ID   = 67885
ELEMENT_SET_NO = 999
REV_AT_EPOCH   = 568
BSTAR          = .11435152E-2
MEAN_MOTION_DOT = .174817E-2
MEAN_MOTION_DDOT = 0

